NORAD_CAT_ID,OBJECT_NAME,OBJECT_TYPE,EPOCH,MEAN_MOTION,ECCENTRICITY,INCLINATION,RA_OF_ASC_NODE,ARG_OF_PERICENTER,MEAN_ANOMALY,BSTAR,MEAN_MOTION_DOT,MEAN_MOTION_DDOT,TLE_LINE0,TLE_LINE1,TLE_LINE2,SEMIMAJOR_AXIS,PERIOD,APOGEE,PERIGEE,DECAYED
56485.0,STARLINK-6210,PAYLOAD,2024-02-22 13:54:37,14.98341842,0.0002504,69.9999,205.4852,274.2557,85.8316,-0.00017159,-2.14e-05,0.0,0 STARLINK-6210,1 56485U 23064AP  24053.57959844 -.00002140  00000-0 -17159-3 0  9993,2 56485  69.9999 205.4852 0002504 274.2557  85.8316 14.98341842 43989,6950.156,96.106,573.762,570.281,0.0
56485.0,STARLINK-6210,PAYLOAD,2024-02-22 20:19:09,14.98335587,0.0002613,70.0,204.8122,270.8379,89.248,2.137e-06,-6.7e-07,0.0,0 STARLINK-6210,1 56485U 23064AP  24053.84663703 -.00000067  00000-0  21370-5 0  9996,2 56485  70.0000 204.8122 0002613 270.8379  89.2480 14.98335587 44028,6950.176,96.107,573.857,570.225,0.0
56485.0,STARLINK-6210,PAYLOAD,2024-02-23 12:20:30,14.9832296,0.0002645,70.0002,203.1289,274.4218,85.6639,-4.5744e-05,-6.39e-06,0.0,0 STARLINK-6210,1 56485U 23064AP  24054.51424651 -.00000639  00000-0 -45744-4 0  9994,2 56485  70.0002 203.1289 0002645 274.4218  85.6639 14.98322960 44480,6950.215,96.107,573.918,570.241,0.0
56485.0,STARLINK-6210,PAYLOAD,2024-02-23 13:56:38,14.98322818,0.0002648,70.0002,202.9606,274.4029,85.6828,-4.6408e-05,-6.47e-06,0.0,0 STARLINK-6210,1 56485U 23064AP  24054.58100689 -.00000647  00000-0 -46408-4 0  9990,2 56485  70.0002 202.9606 0002648 274.4029  85.6828 14.98322818 44137,6950.215,96.107,573.921,570.24,0.0
56485.0,STARLINK-6210,PAYLOAD,2024-02-23 20:21:11,14.98339889,0.0002164,70.0008,202.2889,264.937,95.1542,-0.00035004,-4.268e-05,0.0,0 STARLINK-6210,1 56485U 23064AP  24054.84804402 -.00004268  00000-0 -35004-3 0  9995,2 56485  70.0008 202.2889 0002164 264.9370  95.1542 14.98339889 44534,6950.162,96.106,573.531,570.523,0.0
56485.0,STARLINK-6210,PAYLOAD,2024-02-24 13:58:39,14.98332367,0.0002887,69.9997,200.4356,270.0678,90.015,1.4657e-05,8.2e-07,0.0,0 STARLINK-6210,1 56485U 23064AP  24055.58239958  .00000082  00000-0  14657-4 0  9995,2 56485  69.9997 200.4356 0002887 270.0678  90.0150 14.98332367 44283,6950.186,96.107,574.057,570.044,0.0
56485.0,STARLINK-6210,PAYLOAD,2024-02-24 15:34:47,14.98335503,0.0002651,70.0003,200.2681,269.7097,90.3758,3.225e-05,2.92e-06,0.0,0 STARLINK-6210,1 56485U 23064AP  24055.64915712  .00000292  00000-0  32250-4 0  9993,2 56485  70.0003 200.2681 0002651 269.7097  90.3758 14.98335503 44295,6950.176,96.107,573.883,570.198,0.0
56485.0,STARLINK-6210,PAYLOAD,2024-02-25 12:24:31,14.98331408,0.0002933,69.9997,198.0791,267.0539,93.0284,7.0086e-05,7.43e-06,0.0,0 STARLINK-6210,1 56485U 23064AP  24056.51703682  .00000743  00000-0  70086-4 0  9991,2 56485  69.9997 198.0791 0002933 267.0539  93.0284 14.98331408 44783,6950.189,96.107,574.092,570.015,0.0
56485.0,STARLINK-6210,PAYLOAD,2024-02-25 14:00:40,14.98330487,0.0002918,69.9997,197.9105,270.8449,89.2376,7.9593e-05,8.57e-06,0.0,0 STARLINK-6210,1 56485U 23064AP  24056.58379726  .00000857  00000-0  79593-4 0  9994,2 56485  69.9997 197.9105 0002918 270.8449  89.2376 14.98330487 44432,6950.191,96.107,574.084,570.028,0.0
56485.0,STARLINK-6210,PAYLOAD,2024-02-25 18:49:03,14.9833726,0.0003108,69.9996,197.4056,273.444,86.6363,0.00014075,1.587e-05,0.0,0 STARLINK-6210,1 56485U 23064AP  24056.78407099  .00001587  00000-0  14075-3 0  9995,2 56485  69.9996 197.4056 0003108 273.4440  86.6363 14.98337260 44469,6950.17,96.107,574.196,569.875,0.0
56485.0,STARLINK-6210,PAYLOAD,2024-02-26 12:26:33,14.98328711,0.0002836,70.0001,195.5542,266.776,93.3074,-8.6105e-05,-1.12e-05,0.0,0 STARLINK-6210,1 56485U 23064AP  24057.51844180 -.00001120  00000-0 -86105-4 0  9992,2 56485  70.0001 195.5542 0002836 266.7760  93.3074 14.98328711 44932,6950.197,96.107,574.033,570.091,0.0
56485.0,STARLINK-6210,PAYLOAD,2024-02-26 14:02:41,14.98329175,0.0002954,70.0,195.3859,268.4327,91.6494,-7.7747e-05,-1.02e-05,0.0,0 STARLINK-6210,1 56485U 23064AP  24057.58520164 -.00001020  00000-0 -77747-4 0  9993,2 56485  70.0000 195.3859 0002954 268.4327  91.6494 14.98329175 44582,6950.195,96.107,574.114,570.007,0.0
56485.0,STARLINK-6210,PAYLOAD,2024-02-26 18:51:05,14.98332205,0.0002925,70.0,194.8811,269.0038,91.0786,-4.5847e-05,-6.4e-06,0.0,0 STARLINK-6210,1 56485U 23064AP  24057.78547871 -.00000640  00000-0 -45847-4 0  9992,2 56485  70.0000 194.8811 0002925 269.0038  91.0786 14.98332205 44618,6950.186,96.107,574.084,570.018,0.0
56485.0,STARLINK-6210,PAYLOAD,2024-02-27 12:28:34,14.98328238,0.0002942,70.0001,193.0295,268.9595,91.1227,-7.3901e-05,-9.75e-06,0.0,0 STARLINK-6210,1 56485U 23064AP  24058.51984205 -.00000975  00000-0 -73901-4 0  9993,2 56485  70.0001 193.0295 0002942 268.9595  91.1227 14.98328238 45085,6950.198,96.107,574.108,570.019,0.0
56485.0,STARLINK-6210,PAYLOAD,2024-02-27 14:04:42,14.98326404,0.0002851,70.0005,192.8617,268.331,91.7523,-4.0955e-05,-5.82e-06,0.0,0 STARLINK-6210,1 56485U 23064AP  24058.58660239 -.00000582  00000-0 -40955-4 0  9995,2 56485  70.0005 192.8617 0002851 268.3310  91.7523 14.98326404 44731,6950.204,96.107,574.051,570.088,0.0
56485.0,STARLINK-6210,PAYLOAD,2024-02-27 18:53:06,14.98329019,0.0002981,70.0003,192.357,270.4622,89.6195,-6.2203e-05,-8.35e-06,0.0,0 STARLINK-6210,1 56485U 23064AP  24058.78688158 -.00000835  00000-0 -62203-4 0  9998,2 56485  70.0003 192.3570 0002981 270.4622  89.6195 14.98329019 44765,6950.196,96.107,574.133,569.989,0.0
56485.0,STARLINK-6210,PAYLOAD,2024-02-28 12:30:35,14.98323209,0.0002933,70.0006,190.5062,269.691,90.3913,1.7277e-05,1.13e-06,0.0,0 STARLINK-6210,1 56485U 23064AP  24059.52124479  .00000113  00000-0  17277-4 0  9990,2 56485  70.0006 190.5062 0002933 269.6910  90.3913 14.98323209 45236,6950.214,96.107,574.117,570.04,0.0
56485.0,STARLINK-6210,PAYLOAD,2024-02-28 14:06:43,14.98326811,0.0002736,70.0005,190.3373,271.7098,88.3747,-3.8036e-05,-5.47e-06,0.0,0 STARLINK-6210,1 56485U 23064AP  24059.58800471 -.00000547  00000-0 -38036-4 0  9998,2 56485  70.0005 190.3373 0002736 271.7098  88.3747 14.98326811 44884,6950.203,96.107,573.969,570.166,0.0
56485.0,STARLINK-6210,PAYLOAD,2024-02-28 18:55:07,14.98324252,0.0002886,70.0006,189.8323,269.8243,90.2585,8.8508e-05,9.63e-06,0.0,0 STARLINK-6210,1 56485U 23064AP  24059.78828388  .00000963  00000-0  88508-4 0  9996,2 56485  70.0006 189.8323 0002886 269.8243  90.2585 14.98324252 44912,6950.211,96.107,574.081,570.07,0.0
56485.0,STARLINK-6210,PAYLOAD,2024-02-29 10:56:27,14.98377804,0.0002502,70.0003,188.1493,269.0363,91.051,-0.00068385,-8.253e-05,0.0,0 STARLINK-6210,1 56485U 23064AP  24060.45587487 -.00008253  00000-0 -68385-3 0  9996,2 56485  70.0003 188.1493 0002502 269.0363  91.0510 14.98377804 45378,6950.045,96.104,573.649,570.171,0.0
56485.0,STARLINK-6210,PAYLOAD,2024-02-29 14:08:43,14.98332939,0.0002858,70.0003,187.8119,269.2502,90.833,8.1479e-05,8.79e-06,0.0,0 STARLINK-6210,1 56485U 23064AP  24060.58939744  .00000879  00000-0  81479-4 0  9991,2 56485  70.0003 187.8119 0002858 269.2502  90.8330 14.98332939 45030,6950.184,96.107,574.035,570.062,0.0
56485.0,STARLINK-6210,PAYLOAD,2024-02-29 18:57:07,14.98376575,0.0002489,70.0006,187.308,268.8335,91.2539,-0.00058809,-7.111e-05,0.0,0 STARLINK-6210,1 56485U 23064AP  24060.78966499 -.00007111  00000-0 -58809-3 0  9998,2 56485  70.0006 187.3080 0002489 268.8335  91.2539 14.98376575 45067,6950.049,96.104,573.644,570.184,0.0
56485.0,STARLINK-6210,PAYLOAD,2024-03-01 14:10:45,14.98329421,0.00027,70.001,185.2877,263.9449,96.1403,4.5163e-05,4.46e-06,0.0,0 STARLINK-6210,1 56485U 23064AP  24061.59079873  .00000446  00000-0  45163-4 0  9991,2 56485  70.0010 185.2877 0002700 263.9449  96.1403 14.98329421 45186,6950.195,96.107,573.936,570.183,0.0
56485.0,STARLINK-6210,PAYLOAD,2024-03-01 15:46:53,14.98327992,0.000279,70.001,185.1195,265.8133,94.2707,5.4721e-05,5.6e-06,0.0,0 STARLINK-6210,1 56485U 23064AP  24061.65755934  .00000560  00000-0  54721-4 0  9994,2 56485  70.0010 185.1195 0002790 265.8133  94.2707 14.98327992 45196,6950.199,96.107,574.003,570.125,0.0
56485.0,STARLINK-6210,PAYLOAD,2024-03-02 11:00:29,14.98333161,0.0002938,70.0006,183.0996,266.3845,93.6978,-5.7894e-05,-7.84e-06,0.0,0 STARLINK-6210,1 56485U 23064AP  24062.45867731 -.00000784  00000-0 -57894-4 0  9996,2 56485  70.0006 183.0996 0002938 266.3845  93.6978 14.98333161 45678,6950.183,96.107,574.09,570.006,0.0
56485.0,STARLINK-6210,PAYLOAD,2024-03-02 14:12:45,14.98331906,0.0002957,70.0006,182.7629,267.5533,92.5287,-6.0813e-05,-8.19e-06,0.0,0 STARLINK-6210,1 56485U 23064AP  24062.59219796 -.00000819  00000-0 -60813-4 0  9997,2 56485  70.0006 182.7629 0002957 267.5533  92.5287 14.98331906 45334,6950.187,96.107,574.107,569.997,0.0
56485.0,STARLINK-6210,PAYLOAD,2024-03-02 17:25:01,14.98332705,0.0002757,70.0011,182.4265,263.569,96.5155,-5.608e-05,-7.62e-06,0.0,0 STARLINK-6210,1 56485U 23064AP  24062.72571704 -.00000762  00000-0 -56080-4 0  9990,2 56485  70.0011 182.4265 0002757 263.5690  96.5155 14.98332705 45359,6950.185,96.107,573.966,570.133,0.0
56485.0,STARLINK-6210,PAYLOAD,2024-03-03 11:02:30,14.98329242,0.000301,70.0005,180.5738,268.7294,91.352,-2.6057e-05,-4.04e-06,0.0,0 STARLINK-6210,1 56485U 23064AP  24063.46007715 -.00000404  00000-0 -26057-4 0  9992,2 56485  70.0005 180.5738 0003010 268.7294  91.3520 14.98329242 45829,6950.195,96.107,574.152,569.968,0.0
56485.0,STARLINK-6210,PAYLOAD,2024-03-03 14:14:46,14.98328584,0.0002925,70.0004,180.237,265.8884,94.1941,-3.1464e-05,-4.68e-06,0.0,0 STARLINK-6210,1 56485U 23064AP  24063.59359767 -.00000468  00000-0 -31464-4 0  9991,2 56485  70.0004 180.2370 0002925 265.8884  94.1941 14.98328584 45482,6950.197,96.107,574.095,570.029,0.0
56485.0,STARLINK-6210,PAYLOAD,2024-03-03 17:27:02,14.98332004,0.0002951,70.0006,179.9005,267.243,92.8392,8.616e-06,1e-07,0.0,0 STARLINK-6210,1 56485U 23064AP  24063.72711423  .00000010  00000-0  86160-5 0  9992,2 56485  70.0006 179.9005 0002951 267.2430  92.8392 14.98332004 45506,6950.187,96.107,574.103,570.001,0.0
